H1 CPF  1  MCC 2022  2  9 10  5401 larets
H2  0304206 5557    27944 2022 02 08 23 55 00 2022 02 14 00 07 00   180 1 1  0 0 0
H9
10 0 59623 22740.000000 0      2103477.947     -5580381.971      3773397.791
10 0 59623 22920.000000 0      1538369.431     -4915376.983      4824304.860
10 0 59623 23100.000000 0       937270.727     -4056139.238      5698334.361
10 0 59623 23280.000000 0       326798.368     -3033528.212      6363693.107
10 0 59623 23460.000000 0      -267041.536     -1884943.623      6796285.744
10 0 59623 23640.000000 0      -819945.462      -652916.892      6980528.874
10 0 59623 23820.000000 0     -1310290.263       616478.696      6909865.557
10 0 59623 24000.000000 0     -1719965.626      1875349.445      6586968.815
10 0 59623 24180.000000 0     -2035034.363      3075774.708      6023634.465
10 0 59623 24360.000000 0     -2246202.085      4171618.805      5240369.905
10 0 59623 24540.000000 0     -2349083.178      5120306.109      4265686.807
10 0 59623 24720.000000 0     -2344255.064      5884499.620      3135105.171
10 0 59623 24900.000000 0     -2237095.793      6433610.019      1889886.715
10 0 59623 25080.000000 0     -2037410.124      6745064.635       575537.360
10 0 59623 25260.000000 0     -1758858.205      6805274.341      -759868.813
10 0 59623 25440.000000 0     -1418215.225      6610245.689     -2067481.809
10 0 59623 25620.000000 0     -1034495.598      6165790.042     -3299510.144
10 0 59623 25800.000000 0      -627992.694      5487319.119     -4410992.714
10 0 59623 25980.000000 0      -219287.895      4599261.987     -5361441.689
10 0 59623 26160.000000 0       171725.189      3534131.874     -6116299.164
10 0 59623 26340.000000 0       526756.749      2331288.201     -6648157.701
10 0 59623 26520.000000 0       829933.794      1035452.516     -6937706.230
10 0 59623 26700.000000 0      1068479.912      -304955.902     -6974388.800
10 0 59623 26880.000000 0      1233238.265     -1639613.590     -6756767.557
10 0 59623 27060.000000 0      1319020.708     -2918155.959     -6292582.120
10 0 59623 27240.000000 0      1324775.520     -4092057.082     -5598514.578
10 0 59623 27420.000000 0      1253564.752     -5116481.966     -4699649.631
10 0 59623 27600.000000 0      1112351.634     -5952035.151     -3628627.241
10 0 59623 27780.000000 0       911601.600     -6566340.820     -2424505.590
10 0 59623 27960.000000 0       664712.449     -6935378.101     -1131355.775
10 0 59623 28140.000000 0       387298.056     -7044498.944       203367.591
10 0 59623 28320.000000 0        96358.839     -6889063.470      1530613.908
10 0 59623 28500.000000 0      -190615.959     -6474656.822      2801601.304
10 0 59623 28680.000000 0      -456565.845     -5816868.155      3969676.063
10 0 59623 28860.000000 0      -685746.365     -4940640.726      4992068.029
10 0 59623 29040.000000 0      -864539.135     -3879248.773      5831465.520
10 0 59623 29220.000000 0      -982143.750     -2672956.177      6457358.904
10 0 59623 29400.000000 0     -1031121.170     -1367423.248      6847102.504
10 0 59623 29580.000000 0     -1007768.115       -11947.045      6986675.797
10 0 59623 29760.000000 0      -912313.715      1342406.804      6871143.205
10 0 59623 29940.000000 0      -748927.307      2644718.600      6504802.729
10 0 59623 30120.000000 0      -525537.985      3846113.950      5901025.298
10 0 59623 30300.000000 0      -253475.937      4901590.677      5081789.983
10 0 59623 30480.000000 0        53053.099      5771716.535      4076922.934
10 0 59623 30660.000000 0       377641.594      6424135.010      2923050.314
10 0 59623 30840.000000 0       702473.869      6834823.194      1662296.801
10 0 59623 31020.000000 0      1009210.147      6989036.831       340744.516
10 0 59623 31200.000000 0      1279913.610      6881875.401      -993273.246
10 0 59623 31380.000000 0      1497971.842      6518447.266     -2290972.807
10 0 59623 31560.000000 0      1648963.062      5913626.382     -3504937.743
10 0 59623 31740.000000 0      1721425.814      5091412.944     -4590877.274
10 0 59623 31920.000000 0      1707493.687      4083929.061     -5509247.700
10 0 59623 32100.000000 0      1603363.516      2930109.764     -6226669.619
10 0 59623 32280.000000 0      1409577.438      1674158.436     -6717099.865
10 0 59623 32460.000000 0      1131109.262       363836.556     -6962726.578
10 0 59623 32640.000000 0       777254.709      -951345.386     -6954577.520
10 0 59623 32820.000000 0       361325.706     -2221978.656     -6692828.385
10 0 59623 33000.000000 0       -99838.798     -3400585.819     -6186812.343
10 0 59623 33180.000000 0      -586535.213     -4443387.643     -5454732.940
10 0 59623 33360.000000 0     -1077010.138     -5311948.863     -4523067.831
10 0 59623 33540.000000 0     -1548402.143     -5974644.646     -3425672.529
10 0 59623 33720.000000 0     -1977775.564     -6407884.355     -2202593.000
10 0 59623 33900.000000 0     -2343198.776     -6597030.915      -898618.715
10 0 59623 34080.000000 0     -2624813.873     -6536963.711       438379.501
10 0 59623 34260.000000 0     -2805840.253     -6232240.873      1759259.581
10 0 59623 34440.000000 0     -2873455.453     -5696846.123      3015480.278
10 0 59623 34620.000000 0     -2819503.455     -4953533.780      4160945.276
10 0 59623 34800.000000 0     -2640993.242     -4032813.362      5153731.359
10 0 59623 34980.000000 0     -2340368.366     -2971634.491      5957629.119
10 0 59623 35160.000000 0     -1925534.848     -1811842.486      6543438.357
10 0 59623 35340.000000 0     -1409650.517      -598487.731      6889981.843
10 0 59623 35520.000000 0      -810691.738       621944.957      6984815.623
10 0 59623 35700.000000 0      -150819.123      1803313.003      6824627.983
10 0 59623 35880.000000 0       544442.976      2901546.643      6415334.590
10 0 59623 36060.000000 0      1247187.027      3876279.463      5771863.035
10 0 59623 36240.000000 0      1928228.319      4692329.792      4917636.004
10 0 59623 36420.000000 0      2558302.658      5320988.178      3883758.939
10 0 59623 36600.000000 0      3109311.877      5741058.715      2707926.921
10 0 59623 36780.000000 0      3555566.725      5939618.890      1433076.191
10 0 59623 36960.000000 0      3874964.591      5912446.513       105809.925
10 0 59623 37140.000000 0      4050039.861      5664087.304     -1225328.697
10 0 59623 37320.000000 0      4068836.489      5207559.297     -2511665.931
10 0 59623 37500.000000 0      3925554.806      4563710.285     -3706211.668
10 0 59623 37680.000000 0      3620936.438      3760259.885     -4765398.688
10 0 59623 37860.000000 0      3162373.637      2830582.642     -5650669.716
10 0 59623 38040.000000 0      2563742.137      1812295.690     -6329856.796
10 0 59623 38220.000000 0      1844968.201       745719.051     -6778306.212
10 0 59623 38400.000000 0      1031355.000      -327720.724     -6979722.167
10 0 59623 38580.000000 0       152693.400     -1367084.679     -6926724.249
10 0 59623 38760.000000 0      -757817.640     -2333463.051     -6621103.559
10 0 59623 38940.000000 0     -1664804.580     -3191415.545     -6073781.959
10 0 59623 39120.000000 0     -2532075.392     -3910274.306     -5304467.614
10 0 59623 39300.000000 0     -3324055.494     -4465265.078     -4341008.912
10 0 59623 39480.000000 0     -4007258.654     -4838407.539     -3218445.475
10 0 59623 39660.000000 0     -4551726.132     -5019147.760     -1977771.390
10 0 59623 39840.000000 0     -4932368.008     -5004689.277      -664445.338
10 0 59623 40020.000000 0     -5130134.495     -4799998.617       673301.965
10 0 59623 40200.000000 0     -5132950.472     -4417478.449      1986294.189
10 0 59623 40380.000000 0     -4936355.997     -3876317.087      3226285.650
10 0 59623 40560.000000 0     -4543817.700     -3201551.118      4347791.414
10 0 59623 40740.000000 0     -3966699.269     -2422896.977      5309789.159
10 0 59623 40920.000000 0     -3223898.024     -1573417.482      6077216.988
10 0 59623 41100.000000 0     -2341179.454      -688098.732      6622220.996
10 0 59623 41280.000000 0     -1350236.906       197604.860      6925120.365
10 0 59623 41460.000000 0      -287521.682      1049188.875      6975059.210
10 0 59623 41640.000000 0       807103.573      1834428.945      6770352.889
10 0 59623 41820.000000 0      1891852.375      2524588.062      6318526.908
10 0 59623 42000.000000 0      2924595.726      3095458.833      5636047.647
10 0 59623 42180.000000 0      3864489.937      3528213.417      4747755.692
10 0 59623 42360.000000 0      4673595.733      3810033.771      3686001.601
10 0 59623 42540.000000 0      5318429.000      3934498.791      2489508.463
10 0 59623 42720.000000 0      5771377.810      3901707.556      1201975.919
10 0 59623 42900.000000 0      6011908.456      3718127.044      -129521.197
10 0 59623 43080.000000 0      6027499.783      3396169.995     -1456282.009
10 0 59623 43260.000000 0      5814252.123      2953520.861     -2729797.497
10 0 59623 43440.000000 0      5377140.501      2412248.119     -3903555.759
10 0 59623 43620.000000 0      4729904.675      1797749.355     -4934759.619
10 0 59623 43800.000000 0      3894579.178      1137581.200     -5785883.762
10 0 59623 43980.000000 0      2900697.348       460239.180     -6426008.001
10 0 59623 44160.000000 0      1784211.455      -206055.196     -6831894.797
10 0 59623 44340.000000 0       586178.172      -834511.142     -6988784.835
10 0 59623 44520.000000 0      -648745.144     -1400828.810     -6890902.397
10 0 59623 44700.000000 0     -1873944.857     -1884125.373     -6541659.344
10 0 59623 44880.000000 0     -3042587.864     -2267702.221     -5953560.235
10 0 59623 45060.000000 0     -4109398.401     -2539629.029     -5147803.455
10 0 59623 45240.000000 0     -5032425.985     -2693128.613     -4153582.972
10 0 59623 45420.000000 0     -5774737.774     -2726743.054     -3007086.436
10 0 59623 45600.000000 0     -6305959.107     -2644268.920     -1750211.238
99
